0 COSMOS 1670
1 15930U 85064A   13281.52908407 -.00000036  00000-0  47395-4 0  9140
2 15930 064.9398 284.2677 0048332 082.4145 058.5514 13.83662481412804
0 COSMOS 1670
1 15930U 85064A   13282.54149609 -.00000054  00000-0  31167-4 0  9155
2 15930 064.9397 281.6414 0048354 081.9672 061.6858 13.83662630412943
0 COSMOS 1670
1 15930U 85064A   13283.55207499 -.00000064  00000-0  22041-4 0  9162
2 15930 064.9397 279.0198 0048373 081.5368 055.6739 13.83662849413081
0 COSMOS 1670
1 15930U 85064A   13286.13688015 -.00000093  00000-0 -34107-5 0  9188
2 15930 064.9399 272.3145 0048416 080.4462 331.3335 13.83663347413442
0 COSMOS 1670
1 15930U 85064A   13287.15315449 -.00000094  00000-0 -46868-5 0  9198
2 15930 064.9400 269.6781 0048420 080.0348 353.6736 13.83663341413585
0 COSMOS 1670
1 15930U 85064A   13288.16046679 -.00000082  00000-0  64818-5 0  9209
2 15930 064.9402 267.0650 0048442 079.6049 331.3933 13.83663302413725
0 COSMOS 1670
1 15930U 85064A   13289.48055163 -.00000073  00000-0  14510-4 0  9217
2 15930 064.9404 263.6407 0048481 079.0361 067.1309 13.83663331413906
0 COSMOS 1670
1 15930U 85064A   13290.48965626 -.00000056  00000-0  29788-4 0  9228
2 15930 064.9405 261.0231 0048511 078.5942 053.7907 13.83663228414043
0 COSMOS 1670
1 15930U 85064A   13291.50283068 -.00000047  00000-0  37466-4 0  9238
2 15930 064.9406 258.3950 0048510 078.1746 060.6986 13.83663139414188
0 COSMOS 1670
1 15930U 85064A   13292.85157200 -.00000048  00000-0  37056-4 0  9242
2 15930 064.9407 254.8965 0048540 077.5978 299.1768 13.83663172414374
0 COSMOS 1670
1 15930U 85064A   13294.16399530 -.00000048  00000-0  36784-4 0  9250
2 15930 064.9407 251.4923 0048570 077.0284 356.7538 13.83663212414559
0 COSMOS 1670
1 15930U 85064A   13295.40692862 -.00000047  00000-0  37932-4 0  9268
2 15930 064.9407 248.2684 0048628 076.4778 068.1901 13.83663525414726
